H1 CPF  1  DGF 2022 09 29 10  7721 larets     NONE      
H2   304206 5557    27944 2022 09 29 00 00 00 2022 10 06 00 00 00    30 1 1  0 0 0
H5  0.0650
H9
10 0 59854  32400.000000  0        498008.671      -2273075.671      -6666439.348
10 0 59854  32430.000000  0        437758.876      -2480855.507      -6596081.190
10 0 59854  32460.000000  0        376164.140      -2685863.851      -6519013.569
10 0 59854  32490.000000  0        313299.178      -2887887.484      -6435313.666
10 0 59854  32520.000000  0        249240.929      -3086716.434      -6345065.386
10 0 59854  32550.000000  0        184068.472      -3282144.202      -6248359.287
10 0 59854  32580.000000  0        117862.929      -3473967.970      -6145292.491
10 0 59854  32610.000000  0         50707.372      -3661988.821      -6035968.598
10 0 59854  32640.000000  0        -17313.276      -3846011.946      -5920497.590
10 0 59854  32670.000000  0        -86112.346      -4025846.851      -5798995.734
10 0 59854  32700.000000  0       -155601.523      -4201307.563      -5671585.466
10 0 59854  32730.000000  0       -225690.962      -4372212.824      -5538395.282
10 0 59854  32760.000000  0       -296289.391      -4538386.292      -5399559.615
10 0 59854  32790.000000  0       -367304.231      -4699656.723      -5255218.704
10 0 59854  32820.000000  0       -438641.707      -4855858.162      -5105518.466
10 0 59854  32850.000000  0       -510206.972      -5006830.122      -4950610.348
10 0 59854  32880.000000  0       -581904.222      -5152417.754      -4790651.187
10 0 59854  32910.000000  0       -653636.822      -5292472.024      -4625803.052
10 0 59854  32940.000000  0       -725307.430      -5426849.867      -4456233.088
10 0 59854  32970.000000  0       -796818.122      -5555414.349      -4282113.348
10 0 59854  33000.000000  0       -868070.522      -5678034.814      -4103620.623
10 0 59854  33030.000000  0       -938965.925      -5794587.029      -3920936.268
10 0 59854  33060.000000  0      -1009405.436      -5904953.319      -3734246.017
10 0 59854  33090.000000  0      -1079290.094      -6009022.695      -3543739.801
10 0 59854  33120.000000  0      -1148521.006      -6106690.982      -3349611.550
10 0 59854  33150.000000  0      -1216999.481      -6197860.926      -3152059.004
10 0 59854  33180.000000  0      -1284627.163      -6282442.309      -2951283.508
10 0 59854  33210.000000  0      -1351306.165      -6360352.045      -2747489.805
10 0 59854  33240.000000  0      -1416939.203      -6431514.280      -2540885.828
10 0 59854  33270.000000  0      -1481429.730      -6495860.464      -2331682.479
10 0 59854  33300.000000  0      -1544682.066      -6553329.437      -2120093.414
10 0 59854  33330.000000  0      -1606601.536      -6603867.489      -1906334.819
10 0 59854  33360.000000  0      -1667094.598      -6647428.419      -1690625.183
10 0 59854  33390.000000  0      -1726068.973      -6683973.586      -1473185.071
10 0 59854  33420.000000  0      -1783433.782      -6713471.948      -1254236.889
10 0 59854  33450.000000  0      -1839099.665      -6735900.095      -1034004.650
10 0 59854  33480.000000  0      -1892978.918      -6751242.267       -812713.740
10 0 59854  33510.000000  0      -1944985.610      -6759490.369       -590590.675
10 0 59854  33540.000000  0      -1995035.714      -6760643.976       -367862.865
10 0 59854  33570.000000  0      -2043047.225      -6754710.327       -144758.373
10 0 59854  33600.000000  0      -2088940.281      -6741704.306         78494.332
10 0 59854  33630.000000  0      -2132637.280      -6721648.424        301666.611
10 0 59854  33660.000000  0      -2174062.994      -6694572.785        524529.905
10 0 59854  33690.000000  0      -2213144.679      -6660515.040        746855.970
10 0 59854  33720.000000  0      -2249812.187      -6619520.341        968417.129
10 0 59854  33750.000000  0      -2283998.069      -6571641.276       1188986.503
10 0 59854  33780.000000  0      -2315637.676      -6516937.808       1408338.263
10 0 59854  33810.000000  0      -2344669.262      -6455477.188       1626247.863
10 0 59854  33840.000000  0      -2371034.073      -6387333.875       1842492.279
10 0 59854  33870.000000  0      -2394676.441      -6312589.438       2056850.245
10 0 59854  33900.000000  0      -2415543.872      -6231332.454       2269102.489
10 0 59854  33930.000000  0      -2433587.125      -6143658.397       2479031.957
10 0 59854  33960.000000  0      -2448760.295      -6049669.518       2686424.049
10 0 59854  33990.000000  0      -2461020.881      -5949474.719       2891066.837
10 0 59854  34020.000000  0      -2470329.863      -5843189.418       3092751.287
10 0 59854  34050.000000  0      -2476651.762      -5730935.408       3291271.478
10 0 59854  34080.000000  0      -2479954.706      -5612840.709       3486424.811
10 0 59854  34110.000000  0      -2480210.481      -5489039.416       3678012.221
10 0 59854  34140.000000  0      -2477394.586      -5359671.532       3865838.380
10 0 59854  34170.000000  0      -2471486.280      -5224882.807       4049711.897
10 0 59854  34200.000000  0      -2462468.622      -5084824.560       4229445.511
10 0 59854  34230.000000  0      -2450328.516      -4939653.506       4404856.281
10 0 59854  34260.000000  0      -2435056.735      -4789531.568       4575765.773
10 0 59854  34290.000000  0      -2416647.960      -4634625.693       4742000.236
10 0 59854  34320.000000  0      -2395100.798      -4475107.651       4903390.786
10 0 59854  34350.000000  0      -2370417.800      -4311153.842       5059773.569
10 0 59854  34380.000000  0      -2342605.478      -4142945.082       5210989.923
10 0 59854  34410.000000  0      -2311674.310      -3970666.400       5356886.540
10 0 59854  34440.000000  0      -2277638.744      -3794506.822       5497315.606
10 0 59854  34470.000000  0      -2240517.193      -3614659.160       5632134.945
10 0 59854  34500.000000  0      -2200332.035      -3431319.794       5761208.164
10 0 59854  34530.000000  0      -2157109.596      -3244688.455       5884404.774
10 0 59854  34560.000000  0      -2110880.133      -3054967.997       6001600.324
10 0 59854  34590.000000  0      -2061677.820      -2862364.177       6112676.511
10 0 59854  34620.000000  0      -2009540.712      -2667085.426       6217521.297
10 0 59854  34650.000000  0      -1954510.725      -2469342.624       6316029.013
10 0 59854  34680.000000  0      -1896633.596      -2269348.870       6408100.463
10 0 59854  34710.000000  0      -1835958.843      -2067319.246       6493643.013
10 0 59854  34740.000000  0      -1772539.727      -1863470.584       6572570.685
10 0 59854  34770.000000  0      -1706433.198      -1658021.230       6644804.227
10 0 59854  34800.000000  0      -1637699.843      -1451190.804       6710271.192
10 0 59854  34830.000000  0      -1566403.832      -1243199.972       6768905.994
10 0 59854  34860.000000  0      -1492612.856      -1034270.199       6820649.972
10 0 59854  34890.000000  0      -1416398.063       -824623.525       6865451.432
10 0 59854  34920.000000  0      -1337833.988       -614482.330       6903265.699
10 0 59854  34950.000000  0      -1256998.485       -404069.099       6934055.155
10 0 59854  34980.000000  0      -1173972.642       -193606.195       6957789.274
10 0 59854  35010.000000  0      -1088840.707         16684.383       6974444.652
10 0 59854  35040.000000  0      -1001689.998        226581.227       6984005.026
10 0 59854  35070.000000  0       -912610.814        435863.752       6986461.287
10 0 59854  35100.000000  0       -821696.340        644312.430       6981811.486
10 0 59854  35130.000000  0       -729042.551        851709.015       6970060.833
10 0 59854  35160.000000  0       -634748.111       1057836.769       6951221.690
10 0 59854  35190.000000  0       -538914.269       1262480.685       6925313.560
10 0 59854  35220.000000  0       -441644.747       1465427.714       6892363.064
10 0 59854  35250.000000  0       -343045.636       1666466.980       6852403.918
10 0 59854  35280.000000  0       -243225.273       1865390.003       6805476.894
10 0 59854  35310.000000  0       -142294.129       2061990.909       6751629.783
10 0 59854  35340.000000  0        -40364.684       2256066.640       6690917.342
10 0 59854  35370.000000  0         62448.694       2447417.162       6623401.251
10 0 59854  35400.000000  0        166029.873       2635845.671       6549150.047
10 0 59854  35430.000000  0        270261.089       2821158.792       6468239.062
10 0 59854  35460.000000  0        375023.077       3003166.784       6380750.355
10 0 59854  35490.000000  0        480195.204       3181683.729       6286772.626
10 0 59854  35520.000000  0        585655.605       3356527.729       6186401.136
10 0 59854  35550.000000  0        691281.324       3527521.086       6079737.613
10 0 59854  35580.000000  0        796948.452       3694490.489       5966890.156
10 0 59854  35610.000000  0        902532.273       3857267.189       5847973.128
10 0 59854  35640.000000  0       1007907.406       4015687.172       5723107.050
10 0 59854  35670.000000  0       1112947.950       4169591.329       5592418.484
10 0 59854  35700.000000  0       1217527.639       4318825.618       5456039.911
10 0 59854  35730.000000  0       1321519.982       4463241.229       5314109.605
10 0 59854  35760.000000  0       1424798.423       4602694.730       5166771.490
10 0 59854  35790.000000  0       1527236.486       4737048.224       5014175.007
10 0 59854  35820.000000  0       1628707.931       4866169.476       4856474.956
10 0 59854  35850.000000  0       1729086.902       4989932.055       4693831.354
10 0 59854  35880.000000  0       1828248.084       5108215.458       4526409.277
10 0 59854  35910.000000  0       1926066.857       5220905.235       4354378.696
10 0 59854  35940.000000  0       2022419.450       5327893.103       4177914.320
10 0 59854  35970.000000  0       2117183.103       5429077.061       3997195.413
99
